[{"OBJECT_NAME":"NORSAT 1","OBJECT_ID":"2017-042B","EPOCH":"2026-03-09T23:10:56.235360","MEAN_MOTION":15.12717443,"ECCENTRICITY":0.00081298,"INCLINATION":97.4352,"RA_OF_ASC_NODE":239.0334,"ARG_OF_PERICENTER":71.2425,"MEAN_ANOMALY":288.9687,"EPHEMERIS_TYPE":0,"CLASSIFICATION_TYPE":"U","NORAD_CAT_ID":42826,"ELEMENT_SET_NO":999,"REV_AT_EPOCH":47222,"BSTAR":0.00054334012,"MEAN_MOTION_DOT":9.465e-5,"MEAN_MOTION_DDOT":0},{"OBJECT_NAME":"XRISM","OBJECT_ID":"2023-137A","EPOCH":"2026-03-09T21:42:52.202304","MEAN_MOTION":15.11505182,"ECCENTRICITY":0.00080041,"INCLINATION":31.0015,"RA_OF_ASC_NODE":282.2731,"ARG_OF_PERICENTER":40.7626,"MEAN_ANOMALY":319.361,"EPHEMERIS_TYPE":0,"CLASSIFICATION_TYPE":"U","NORAD_CAT_ID":57800,"ELEMENT_SET_NO":999,"REV_AT_EPOCH":13782,"BSTAR":0.00036815988,"MEAN_MOTION_DOT":6.492e-5,"MEAN_MOTION_DDOT":0}]
